# Nearby stars and star orbits out to 25 light years, supplementary
# to Celestia's stars.dat.

# Data are mainly derived from the RECONS survey tabulation at
# http://www.chara.gsu.edu/RECONS/TOP100.posted.htm. In particular, the 
# distances given are derived from RECONS's weighted average parallaxes,
# rather than pure Hipparcos data. Additional definitions are provided
# for some stars within 25 light years which are beyond the limit of RECONS
# tabulation: these are non-Hipparcos stars, multiple stars, and stars
# with other known properties not present in stars.dat.

# Orbits are taken from Staffan Söderhjelm's "Visual binary orbits and
# masses post Hipparcos" A&A 1999; 34: 121-40
# (http://adsabs.harvard.edu/abs/1999A&A...341..121S), unless newer data
# have been found. If orbits don't appear in Söderhjelm, they have been
# taken from the Sixth Catalog of Orbits of Visual Binary Stars
# (http://ad.usno.navy.mil/wds/orb6.html) and the Ninth Catalogue of
# Spectroscopic Binary Orbits (http://sb9.astro.ulb.ac.be). Other sources
# appear as comments for individual star systems.

# For binary orbits, the direction of an orbit's node on the plane of the 
# sky is often unknown - the orbits given below will appear correct when
# viewed from Earth, but the true orbit may be tilted either towards 
# or away from the Earth.
# For a few orbits the nature of the node is known - these are
# marked with the phrase "fully specified orientation".
# Barycenter positions are based on mass estimates from Söderhjelm or RECONS:
# the figures used are added as comments below.

Barycenter "Solar System Barycenter:SSB"
{
	RA 0
	Dec 0
	Distance 0
}

0 "Sol:Sun"
{
	OrbitBarycenter "Solar System Barycenter"
	CustomOrbit "vsop87-sun"

	SpectralType "G2V"
	AbsMag 4.83
	Temperature 5780
	BoloCorrection -0.08
	
	UniformRotation
	{
	    Period         609.12  # 25.38 days
	    Inclination      7.25
	    AscendingNode   75.77
	    MeridianAngle   23.00  # standard meridian
	}
}

70890 # Proxima Cen
{
	RA 217.429167
	Dec -62.679444
	Distance 4.242
	SpectralType "M5.0V"
	AppMag 11.05
}

Barycenter "Rigil Kentaurus:Toliman:ALF Cen:Gliese 559"
{
	RA  219.899437 # mass ratio 1.12:0.93
	Dec -60.835401 #
	Distance 4.365
}

71683 # ALF Cen A
{
	OrbitBarycenter "ALF Cen"
	SpectralType "G2V"
	AppMag 0.01
 
	EllipticalOrbit {			   
		Period           79.85
		SemiMajorAxis    10.68 # mass ratio 1.12:0.93
		Eccentricity      0.52
		Inclination      82.22
		AscendingNode    67.30
		ArgOfPericenter   4.02
		MeanAnomaly     200.13
	}			 
}

71681 # ALF cen B
{
	OrbitBarycenter "ALF Cen"
	SpectralType "K0V"
	AppMag 1.34

	EllipticalOrbit {			   
		Period           79.85
		SemiMajorAxis    12.87 # mass ratio 1.12:0.93
		Eccentricity      0.52
		Inclination      82.22
		AscendingNode    67.30
		ArgOfPericenter 184.02
		MeanAnomaly     200.13
	}			 
}

87937 # Barnard's Star
{
	RA 269.452083
	Dec 4.693333
	Distance 5.979
	SpectralType "M3.5V"
	AppMag 9.57
}

"CN Leo:Gliese 406:Wolf 359"
{
	RA 164.121783
	Dec 7.014722
	Distance 7.782
	SpectralType "M5.5V"
	AppMag 13.53
}

54035 # Lalande 21185
{
	RA 165.834167
	Dec 35.970000
	Distance 8.294
	SpectralType "M2.0V"
	AppMag 7.47
}

Barycenter 32349 "Sirius:Alhabor:ALF CMa:9 CMa:Gliese 244:ADS 5423"
{
	RA 101.287083
	Dec -16.716111
	Distance 8.583
}

"Sirius A:Alhabor A:ALF CMa A:9 CMa A:Gliese 244 A:ADS 5423 A"
{
	OrbitBarycenter "Sirius"
	SpectralType "A1V"
	AppMag -1.43

	EllipticalOrbit {              # fully specified orientation
		Period          50.09
		SemiMajorAxis   6.73   # mass ratio 1.99:1.03
		Eccentricity    0.5923
		Inclination	97.51
		AscendingNode   161.33
		ArgOfPericenter 4.56
		MeanAnomaly     40.89
	}
}

"Sirius B:Alhabor B:ALF CMa B:9 CMa B:Gliese 244 B:ADS 5423 B"
{
	OrbitBarycenter "Sirius"
	SpectralType "DA2"
	AppMag 8.44

	EllipticalOrbit {              # fully specified orientation
		Period          50.09
		SemiMajorAxis   13.00  # mass ratio 1.99:1.03
		Eccentricity    0.592
		Inclination	97.51
		AscendingNode   161.33
		ArgOfPericenter 184.56
		MeanAnomaly     40.89
	}
}

Barycenter "Gliese 65:Luyten 726-8"
{
	RA 24.755529
	Dec -17.950278
	Distance 8.728
}

"BL Cet:Gliese 65 A:Luyten 726-8 A"
{
	OrbitBarycenter "Gliese 65"
	SpectralType "M5.5V"
	AppMag 12.61

	EllipticalOrbit {
		Period          26.52
		SemiMajorAxis   2.61    # mass ratio 0.1:0.1
		Eccentricity    0.62
		Inclination	101.3
		AscendingNode   159.5
		ArgOfPericenter 39.7
		MeanAnomaly     21.3
	}
}

"UV Cet:Gliese 65 B:Luyten 726-8 B"
{
	OrbitBarycenter "Gliese 65"
	SpectralType "M6.0V"
	AppMag 13.06

	EllipticalOrbit {
		Period          26.52
		SemiMajorAxis   2.61   # mass ratio 0.1:0.1
		Eccentricity    0.62
		Inclination	101.3
		AscendingNode   159.5
		ArgOfPericenter 219.7
		MeanAnomaly     21.3
	}
}

92403 # Ross 154
{
	RA 282.455833
	Dec -23.836111
	Distance 9.672
	SpectralType "M3.5V"
	AppMag 10.44
}

"HH And:Gliese 905:Ross 248"
{
	RA 355.479875
	Dec 44.177222
	Distance 10.310
	SpectralType "M5.5V"
	AppMag 12.29
}

16537 # Eps Eri
{
	RA 53.232500
	Dec -9.458333
	Distance 10.480
	SpectralType "K2V"
	AppMag 3.73
}

114046 # Lacaille 9352
{
	RA 346.466667
	Dec -35.853056
	Distance 10.691
	SpectralType "M1.0V"
	AppMag 7.34
}

57548 # Ross 128
{
	RA 176.935000
	Dec 0.804444
	Distance 10.940
	SpectralType "M4.0V"
	AppMag 11.16
}

# Delfosse, X. et al. (1999) "New Neighbours I: 13 new
# companions to nearby M dwarfs" A&A, 344, 897
# (http://arxiv.org/abs/astro-ph/9812008)
Barycenter "Gliese 866:Luyten 789-6"
{
	RA 339.640833
	Dec -15.300806
	Distance 11.266
}

Barycenter "Gliese 866 A:Luyten 789-6 A"
{
	OrbitBarycenter "Gliese 866"

	EllipticalOrbit {
		Period          2.2506
		SemiMajorAxis   0.42   # mass ratio 0.106:(0.105+0.095)
		Eccentricity    0.437
		Inclination	96.2
		AscendingNode   133.5
		ArgOfPericenter 76.4
		MeanAnomaly     241.7
	}
}

"EZ Aqr:Gliese 866 Aa:Luyten 789-6 Aa"
{
	OrbitBarycenter "Gliese 866 A"
	SpectralType "M5.0V"
	AppMag 13.03

	EllipticalOrbit {
		Period          0.010	# 3.8dys
		SemiMajorAxis   0.013	# to match period and mass ratio 0.105:0.095
		Inclination	96	# guess - to match plane of B
		AscendingNode   133	# guess - to match plane of B
	}
}

"Gliese 866 Ab:Luyten 789-6 Ab"
{
	OrbitBarycenter "Gliese 866 A"
	SpectralType "M6V" # from apparent magnitude
	AppMag 15.07

	EllipticalOrbit {
		Period          0.010	# 3.8dys
		SemiMajorAxis   0.014	# to match period and mass ratio 0.105:0.095
		Inclination	96	# guess - to match plane of B
		AscendingNode   133	# guess - to match plane of B
		ArgOfPericenter 180
	}
}

"Gliese 866 B:Luyten 789-6 B"
{
	OrbitBarycenter "Gliese 866"
	SpectralType "M5V" # from apparent magnitude
	AppMag 13.27

	EllipticalOrbit {
		Period          2.2506
		SemiMajorAxis   0.78   # mass ratio 0.106:(0.105+0.095)
		Eccentricity    0.437
		Inclination	96.2
		AscendingNode   133.5
		ArgOfPericenter 256.4
		MeanAnomaly     241.7
	}
}

Barycenter "61 Cyg:Gliese 820:ADS 14636"
{
	RA 316.714507   # mass ratio 0.7:0.63
	Dec 38.738139   #
	Distance 11.401
}

104214 "61 Cyg A:V1803 Cyg:Gliese 820 A:ADS 14636 A"
{
	OrbitBarycenter "61 Cyg"
	SpectralType "K5V"
	AppMag 5.20

	EllipticalOrbit {
		Period          659
		SemiMajorAxis   40.40 # mass ratio 0.7:0.63
		Eccentricity	0.48
		Inclination	132
		AscendingNode   165
		ArgOfPericenter 195
		MeanAnomaly     165
	}
}

104217 "61 Cyg B:Gliese 820 B:ADS 14636 B"
{
	OrbitBarycenter "61 Cyg"
	SpectralType "K7V"
	AppMag 6.03

	EllipticalOrbit {
		Period          659
		SemiMajorAxis   44.90 # mass ratio 0.7:0.63
		Eccentricity	0.48
		Inclination	132
		AscendingNode   165
		ArgOfPericenter 15
		MeanAnomaly     165
	}
}

Barycenter 37279 "Procyon:Elgomaisa:ALF CMi:10 CMi:Gliese 280:ADS 6251"
{
	RA 114.82724
	Dec 5.2275076
	Distance 11.438
}

"Procyon A:Elgomaisa A:ALF CMi A:10 CMi A:Gliese 280 A:ADS 6251 A"
{
	OrbitBarycenter "Procyon"
	SpectralType "F5IV"
	AppMag 0.37

	EllipticalOrbit {
		Period          40.82
		SemiMajorAxis   4.13   # mass ratio 1.57:0.6
		Eccentricity    0.407
		Inclination	42.9
		AscendingNode   27.8
		ArgOfPericenter 88.4
		MeanAnomaly     282.5
	}
}

"Procyon B:Elgomaisa B:ALF CMi B:10 CMi B:Gliese 280 B:ADS 6251 B"
{
	OrbitBarycenter "Procyon"
	SpectralType "DA"
	AppMag 10.70

	EllipticalOrbit {
		Period          40.82
		SemiMajorAxis   10.80  # mass ratio 1.57:0.6
		Eccentricity    0.407
		Inclination	42.9
		AscendingNode   27.8
		ArgOfPericenter 268.4
		MeanAnomaly     282.5
	}
}

Barycenter "Gliese 725:ADS 11632:Struve 2398"
{
	RA 280.701371   # mass ratio 0.35:0.26
	Dec 59.624455   #
	Distance 11.492
}

91768 "Gliese 725 A:ADS 11632 A:Struve 2398 A"
{
	OrbitBarycenter "Gliese 725"
	SpectralType "M3.0V"
	AppMag 8.90

	EllipticalOrbit {
		Period          408
		SemiMajorAxis   20.91 # mass ratio 0.35:0.26
		Eccentricity	0.53
		Inclination	112
		AscendingNode   146.1
		ArgOfPericenter 243.5
		MeanAnomaly     198.5
	}
}

91772 "Gliese 725 B:ADS 11632 B:Struve 2398 B"
{
	OrbitBarycenter "Gliese 725"
	SpectralType "M3.5V"
	AppMag 9.69

	EllipticalOrbit {
		Period          408
		SemiMajorAxis   28.14 # mass ratio 0.35:0.26
		Eccentricity	0.53
		Inclination	112
		AscendingNode   146.1
		ArgOfPericenter 63.5
		MeanAnomaly     198.5
	}
}

Barycenter 1475 "Gliese 15:ADS 246:Groombridge 34"
{
	RA 4.595417
	Dec 44.023056
	Distance 11.654
}

